IRIDIUM 144             
1 43249U 18030A   23264.30818725  .00000382  00000+0  12938-3 0  9993
2 43249  86.4024 348.3059 0001999  90.9641 269.1783 14.34218080286820
IRIDIUM 149             
1 43250U 18030B   23264.31453306  .00000060  00000+0  14411-4 0  9998
2 43250  86.4022 348.2812 0001988  91.7653 268.3770 14.34218937286846
IRIDIUM 157             
1 43251U 18030C   23264.33355922  .00000461  00000+0  15737-3 0  9992
2 43251  86.4025 348.3046 0002312  95.9069 264.2390 14.34218020286823
IRIDIUM 140             
1 43252U 18030D   23264.28282173  .00000504  00000+0  17306-3 0  9996
2 43252  86.4026 348.3404 0002100  85.7894 274.3541 14.34218954286872
IRIDIUM 145             
1 43253U 18030E   23264.27013110  .00001651  00000+0  58227-3 0  9990
2 43253  86.4023 348.3200 0001808  94.8285 265.3117 14.34220439286806
IRIDIUM 146             
1 43254U 18030F   23264.32086567  .00000496  00000+0  16989-3 0  9998
2 43254  86.4025 348.3146 0001937  97.3126 262.8290 14.34222535286828
IRIDIUM 148             
1 43255U 18030G   23264.28915940  .00000269  00000+0  89088-4 0  9999
2 43255  86.4024 348.3558 0001886 100.9125 259.2283 14.34217903286856
IRIDIUM 142             
1 43256U 18030H   23264.32721846  .00000084  00000+0  23021-4 0  9995
2 43256  86.4022 348.2656 0002101  96.4112 263.7323 14.34218689286823
